STARLINK-5823           
1 55786U 23028AX  26068.75256177 -.00000080  00000+0  11127-5 0  9993
2 55786  70.0009 204.3750 0002457 270.7505  89.3373 14.98328941167033
QPS-SAR-15 (SUKUNAMI-I) 
1 67228U 25307A   26067.99718845  .00007522  00000+0  63967-3 0  9993
2 67228  42.0068  57.7223 0008196  56.4325 303.7282 14.98074148 11656
